NORAD_CAT_ID,OBJECT_NAME,OBJECT_TYPE,EPOCH,MEAN_MOTION,ECCENTRICITY,INCLINATION,RA_OF_ASC_NODE,ARG_OF_PERICENTER,MEAN_ANOMALY,BSTAR,MEAN_MOTION_DOT,MEAN_MOTION_DDOT,TLE_LINE0,TLE_LINE1,TLE_LINE2,SEMIMAJOR_AXIS,PERIOD,APOGEE,PERIGEE,DECAYED
53157.0,STARLINK-4093,PAYLOAD,2022-09-29 06:00:00,15.13985821,0.0001538,53.2171,49.0176,62.8069,109.1131,-0.0633789999999999,-0.01077415,0.0,0 STARLINK-4093,1 53157U 22083AB  22272.25001157 -.01077415  00000-0 -63379-1 0  9998,2 53157  53.2171  49.0176 0001538  62.8069 109.1131 15.13985821 12155,6902.196,95.113,525.123,523.0,0.0
53157.0,STARLINK-4093,PAYLOAD,2022-09-29 14:00:01,15.13223243,0.0001584,53.2176,47.5124,60.8699,128.3639,-0.064439,-0.01072479,0.0,0 STARLINK-4093,1 53157U 22083AB  22272.58334491 -.01072479  00000-0 -64439-1 0  9997,2 53157  53.2176  47.5124 0001584  60.8699 128.3639 15.13223243  1308,6904.515,95.161,527.474,525.286,0.0
53157.0,STARLINK-4093,PAYLOAD,2022-09-29 22:00:00,15.12485007,0.0001486999999999,53.2166,46.0063,71.4209,134.2037,-0.067714,-0.01101466,0.0,0 STARLINK-4093,1 53157U 22083AB  22272.91667824 -.01101466  00000-0 -67714-1 0  9991,2 53157  53.2166  46.0063 0001487  71.4209 134.2037 15.12485007  1305,6906.761,95.208,529.653,527.599,0.0
53157.0,STARLINK-4093,PAYLOAD,2022-09-30 06:00:02,15.11715645,0.0001499,53.217,44.5011,67.8662,153.3161,-0.068357,-0.01089186,0.0,0 STARLINK-4093,1 53157U 22083AB  22273.25002315 -.01089186  00000-0 -68357-1 0  9995,2 53157  53.2170  44.5011 0001499  67.8662 153.3161 15.11715645 12306,6909.105,95.256,532.005,529.934,0.0
53157.0,STARLINK-4093,PAYLOAD,2022-09-30 14:00:01,15.1097557,0.0001464,53.2171,43.0002,86.7325,148.951,-0.0714679999999999,-0.01113484,0.0,0 STARLINK-4093,1 53157U 22083AB  22273.58334491 -.01113484  00000-0 -71468-1 0  9990,2 53157  53.2171  43.0002 0001464  86.7325 148.9510 15.10975570  1309,6911.36,95.303,534.237,532.214,0.0
53157.0,STARLINK-4093,PAYLOAD,2022-09-30 22:00:00,15.10215879,0.0001356,53.2166,41.5005,77.4611,171.8872,-0.0733,-0.01117786,0.0,0 STARLINK-4093,1 53157U 22083AB  22273.91667824 -.01117786  00000-0 -73300-1 0  9992,2 53157  53.2166  41.5005 0001356  77.4611 171.8872 15.10215879  1309,6913.678000000001,95.351,536.481,534.606,0.0
53157.0,STARLINK-4093,PAYLOAD,2022-10-01 06:00:00,15.09307725,0.0001256,53.2173,40.0012,84.40700000000002,177.7205,-0.036774,-0.00555481,0.0,0 STARLINK-4093,1 53157U 22083AB  22274.25001157 -.00555481  00000-0 -36774-1 0  9992,2 53157  53.2173  40.0012 0001256  84.4070 177.7205 15.09307725 12458,6916.451,95.408,539.185,537.447,0.0
53157.0,STARLINK-4093,PAYLOAD,2022-10-01 14:00:01,15.08949237,0.0001258,53.2154,38.5018,70.3307,203.6408,-0.0093058999999999,-0.00145841,0.0,0 STARLINK-4093,1 53157U 22083AB  22274.58334491 -.00145841  00000-0 -93059-2 0  9993,2 53157  53.2154  38.5018 0001258  70.3307 203.6408 15.08949237 12503,6917.547,95.431,540.2819999999998,538.5409999999998,0.0
53157.0,STARLINK-4093,PAYLOAD,2022-10-01 22:00:00,15.08895544,0.0001453,53.2148,37.0026,66.0835,219.5579,-0.0033357,-0.00053065,0.0,0 STARLINK-4093,1 53157U 22083AB  22274.91667824 -.00053065  00000-0 -33357-2 0  9990,2 53157  53.2148  37.0026 0001453  66.0835 219.5579 15.08895544 12555,6917.7109999999975,95.434,540.581,538.57,0.0
53157.0,STARLINK-4093,PAYLOAD,2022-10-02 14:00:01,15.088738,0.00014,53.2152,34.0096,66.4033,242.4983,-0.0064556,-0.00101675,0.0,0 STARLINK-4093,1 53157U 22083AB  22275.58334491 -.00101675  00000-0 -64556-2 0  9991,2 53157  53.2152  34.0096 0001400  66.4033 242.4983 15.08873800 12656,6917.776999999999,95.435,540.611,538.674,0.0
53157.0,STARLINK-4093,PAYLOAD,2022-10-02 22:00:00,15.088164,0.0001267,53.2151,32.513000000000005,58.646,261.8493,-0.00036613,-6.106e-05,0.0,0 STARLINK-4093,1 53157U 22083AB  22275.91667824 -.00006106  00000-0 -36613-3 0  9994,2 53157  53.2151  32.5130 0001267  58.6460 261.8493 15.08816400  1309,6917.953,95.439,540.694,538.941,0.0
53157.0,STARLINK-4093,PAYLOAD,2022-10-03 14:00:01,15.08891565,0.0001413,53.2154,29.5203,60.2812,283.3636,-0.0021715999999999,-0.00034731,0.0,0 STARLINK-4093,1 53157U 22083AB  22276.58334491 -.00034731  00000-0 -21716-2 0  9991,2 53157  53.2154  29.5203 0001413  60.2812 283.3636 15.08891565  1305,6917.723000000001,95.434,540.565,538.61,0.0
53157.0,STARLINK-4093,PAYLOAD,2022-10-03 22:00:00,15.08889708,0.0001416,53.2155,28.0234,57.0047,298.278,-0.0047485,-0.00075174,0.0,0 STARLINK-4093,1 53157U 22083AB  22276.91667824 -.00075174  00000-0 -47485-2 0  9994,2 53157  53.2155  28.0234 0001416  57.0047 298.2780 15.08889708  1302,6917.728,95.434,540.573,538.614,0.0
53157.0,STARLINK-4093,PAYLOAD,2022-10-04 14:00:01,15.08869976,0.0001575,53.2159,25.0307,60.0345,318.4782,-0.0042831,-0.00067867,0.0,0 STARLINK-4093,1 53157U 22083AB  22277.58334491 -.00067867  00000-0 -42831-2 0  9999,2 53157  53.2159  25.0307 0001575  60.0345 318.4782 15.08869976  1307,6917.7890000000025,95.436,540.743,538.564,0.0
53157.0,STARLINK-4093,PAYLOAD,2022-10-04 22:00:00,15.08841849,0.000146,53.2161,23.5338,53.7485,336.3627,-0.0021633,-0.00034554,0.0,0 STARLINK-4093,1 53157U 22083AB  22277.91667824 -.00034554  00000-0 -21633-2 0  9999,2 53157  53.2161  23.5338 0001460  53.7485 336.3627 15.08841849  1300,6917.875,95.437,540.75,538.73,0.0
53157.0,STARLINK-4093,PAYLOAD,2022-10-05 06:00:00,15.08890843,0.0001355,53.2168,22.0392,58.3574,343.3234,-0.01329,-0.00206091,0.0,0 STARLINK-4093,1 53157U 22083AB  22278.25001157 -.00206091  00000-0 -13290-1 0  9994,2 53157  53.2168  22.0392 0001355  58.3574 343.3234 15.08890843 13060,6917.725,95.434,540.5269999999998,538.653,0.0
53157.0,STARLINK-4093,PAYLOAD,2022-10-05 14:00:01,15.08634434,0.0001530999999999,53.2174,20.5473,55.2532,358.0814,0.018705,0.00308975,0.0,0 STARLINK-4093,1 53157U 22083AB  22278.58335648  .00308975  00000-0  18705-1 0  9993,2 53157  53.2174  20.5473 0001531  55.2532 358.0814 15.08634434  1309,6918.509,95.451,541.433,539.315,0.0
53157.0,STARLINK-4093,PAYLOAD,2022-10-05 22:00:00,15.08837544,0.0001526,53.2173,19.0524,52.8426,11.9065,-0.00011394,-2.101e-05,0.0,0 STARLINK-4093,1 53157U 22083AB  22278.91667824 -.00002101  00000-0 -11394-3 0  9997,2 53157  53.2173  19.0524 0001526  52.8426  11.9065 15.08837544 13164,6917.888000000001,95.438,540.809,538.697,0.0
53157.0,STARLINK-4093,PAYLOAD,2022-10-06 14:00:01,15.08837313,0.0001496999999999,53.2175,16.0588,52.0445,35.8897,-0.00010184,-1.908e-05,0.0,0 STARLINK-4093,1 53157U 22083AB  22279.58334491 -.00001908  00000-0 -10184-3 0  9992,2 53157  53.2175  16.0588 0001497  52.0445  35.8897 15.08837313  1308,6917.889,95.438,540.789,538.7180000000002,0.0
53157.0,STARLINK-4093,PAYLOAD,2022-10-06 22:42:55,15.08859038,0.0001409999999999,53.2165,14.4215,55.756,205.7051,-0.0015961999999999,-0.00025615,0.0,0 STARLINK-4093,1 53157U 22083AB  22279.94646991 -.00025615  00000-0 -15962-2 0  9992,2 53157  53.2165  14.4215 0001410  55.7560 205.7051 15.08859038  1307,6917.821999999999,95.436,540.663,538.712,0.0
53157.0,STARLINK-4093,PAYLOAD,2022-10-07 14:00:01,15.08841132,0.0001578,53.2166,11.5637,57.01,65.759,-0.001016,-0.00016422,0.0,0 STARLINK-4093,1 53157U 22083AB  22280.58334491 -.00016422  00000-0 -10160-2 0  9994,2 53157  53.2166  11.5637 0001578  57.0100  65.7590 15.08841132 13417,6917.877,95.437,540.8340000000002,538.65,0.0
53157.0,STARLINK-4093,PAYLOAD,2022-10-07 22:00:00,15.08841676,0.0001521999999999,53.2162,10.0665,59.101000000000006,75.2549,-0.0021669,-0.0003461,0.0,0 STARLINK-4093,1 53157U 22083AB  22280.91667824 -.00034610  00000-0 -21669-2 0  9995,2 53157  53.2162  10.0665 0001522  59.1010  75.2549 15.08841676  1308,6917.875,95.437,540.793,538.687,0.0
53157.0,STARLINK-4093,PAYLOAD,2022-10-08 14:00:01,15.08812871,0.0001706999999999,53.2162,7.075,60.0102,97.5049,0.0008836,0.00013792,0.0,0 STARLINK-4093,1 53157U 22083AB  22281.58334491  .00013792  00000-0  88360-3 0  9998,2 53157  53.2162   7.0750 0001707  60.0102  97.5049 15.08812871  1304,6917.9630000000025,95.439,541.009,538.6469999999998,0.0
53157.0,STARLINK-4093,PAYLOAD,2022-10-08 22:00:00,15.08837164,0.0001571,53.2159,5.5776,60.4219,108.6681,-0.0012324,-0.00019847,0.0,0 STARLINK-4093,1 53157U 22083AB  22281.91667824 -.00019847  00000-0 -12324-2 0  9999,2 53157  53.2159   5.5776 0001571  60.4219 108.6681 15.08837164 13618,6917.889,95.438,540.841,538.6669999999998,0.0
53157.0,STARLINK-4093,PAYLOAD,2022-10-09 14:00:01,15.08858483,0.0001661,53.2159,2.5861,57.0705,135.2057,0.00085939,0.00013423,0.0,0 STARLINK-4093,1 53157U 22083AB  22282.58334491  .00013423  00000-0  85939-3 0  9999,2 53157  53.2159   2.5861 0001661  57.0705 135.2057 15.08858483 13713,6917.824000000001,95.436,540.8380000000002,538.54,0.0
53157.0,STARLINK-4093,PAYLOAD,2022-10-09 22:00:00,15.08881816,0.0001564,53.2157,1.0884,57.3859,146.5134,-0.0035008,-0.00055637,0.0,0 STARLINK-4093,1 53157U 22083AB  22282.91667824 -.00055637  00000-0 -35008-2 0  9991,2 53157  53.2157   1.0884 0001564  57.3859 146.5134 15.08881816  1304,6917.753000000002,95.435,540.7,538.536,0.0
53157.0,STARLINK-4093,PAYLOAD,2022-10-10 06:00:00,15.08849363,0.0001583,53.2159,359.5918,62.8732,152.6457,0.00011443,1.534e-05,0.0,0 STARLINK-4093,1 53157U 22083AB  22283.25001157  .00001534  00000-0  11443-3 0  9993,2 53157  53.2159 359.5918 0001583  62.8732 152.6457 15.08849363 13813,6917.852,95.437,540.812,538.622,0.0
53157.0,STARLINK-4093,PAYLOAD,2022-10-10 14:00:01,15.08928043,0.0001651,53.2166,358.1004,58.2577,168.8527,-0.016841,-0.00259426,0.0,0 STARLINK-4093,1 53157U 22083AB  22283.58334491 -.00259426  00000-0 -16841-1 0  9991,2 53157  53.2166 358.1004 0001651  58.2577 168.8527 15.08928043  1305,6917.611,95.432,540.618,538.3340000000002,0.0
53157.0,STARLINK-4093,PAYLOAD,2022-10-10 22:00:01,15.08989939,0.0001633,53.2166,356.6021,54.1952,184.61900000000003,-0.028212,-0.00425247,0.0,0 STARLINK-4093,1 53157U 22083AB  22283.91668981 -.00425247  00000-0 -28212-1 0  9993,2 53157  53.2166 356.6021 0001633  54.1952 184.6190 15.08989939  1302,6917.422,95.428,540.4169999999998,538.158,0.0
